{"Dean Powell": {"id": 1000, "geboorteDatum": "02/03/1989", "woonplaats": {"address1": "6041 North 72nd Lane", "address2": "", "city": "Glendale", "state": "AZ", "postalCode": "85303", "coordinates": {"lat": 33.525117, "lng": -112.215039}}, "gehuurdeFiets": null}, "Violet Benton": {"id": 1001, "geboorteDatum": "01/24/1994", "woonplaats": {"address1": "42 Edison Road", "address2": "", "city": "Manchester", "state": "CT", "postalCode": "06040", "coordinates": {"lat": 41.780963, "lng": -72.55426299999999}}, "gehuurdeFiets": null}, "Terry Hudson": {"id": 1002, "geboorteDatum": "10/26/1987", "woonplaats": {"address1": "40 Highwood Drive", "address2": "", "city": "Manchester", "state": "CT", "postalCode": "06040", "coordinates": {"lat": 41.768694, "lng": -72.493004}}, "gehuurdeFiets": null}, "Lilian Eaton": {"id": 1003, "geboorteDatum": "01/14/1999", "woonplaats": {"address1": "1400 Doris Drive", "address2": "", "city": "Louisville", "state": "KY", "postalCode": "40118", "coordinates": {"lat": 38.1089043, "lng": -85.7403406}}, "gehuurdeFiets": null}, "Kyle Gibbs": {"id": 1004, "geboorteDatum": "01/17/1980", "woonplaats": {"address1": "3031 Montgomery Street", "address2": "", "city": "Savannah", "state": "GA", "postalCode": "31405", "coordinates": {"lat": 32.050203, "lng": -81.10771}}, "gehuurdeFiets": null}, "Mariah McKinney": {"id": 1005, "geboorteDatum": "10/01/1992", "woonplaats": {"address1": "1114 Barley Drive", "address2": "", "city": "Montgomery", "state": "AL", "postalCode": "36111", "coordinates": {"lat": 32.329514, "lng": -86.284313}}, "gehuurdeFiets": null}, "Memphis Joseph": {"id": 1006, "geboorteDatum": "10/05/1994", "woonplaats": {"address1": "2064 West Columbia Way", "address2": "", "city": "Hanford", "state": "CA", "postalCode": "93230", "coordinates": {"lat": 36.3336245, "lng": -119.6799802}}, "gehuurdeFiets": null}, "Zuri Turner": {"id": 1007, "geboorteDatum": "03/27/1996", "woonplaats": {"address1": "225 Almond Street", "address2": "#3E", "city": "Fall River", "state": "MA", "postalCode": "02721", "coordinates": {"lat": 41.698185, "lng": -71.171035}}, "gehuurdeFiets": null}, "Edwin Hoover": {"id": 1008, "geboorteDatum": "04/28/1992", "woonplaats": {"address1": "201 Lee Boulevard", "address2": "", "city": "Savannah", "state": "GA", "postalCode": "31405", "coordinates": {"lat": 32.018704, "lng": -81.108882}}, "gehuurdeFiets": null}, "Lauren Moore": {"id": 1009, "geboorteDatum": "08/05/1981", "woonplaats": {"address1": "3415 Bog Road", "address2": "", "city": "Belvidere", "state": "VT", "postalCode": "05442", "coordinates": {"lat": 44.757141, "lng": -72.632584}}, "gehuurdeFiets": null}}